{
  "type": "FeatureCollection",
  "features": [
    {
      "type": "Feature",
      "properties": {
        "norad_id": 36744,
        "name": "COMS 1",
        "group": "weather",
        "lat": -1.4782613964765337,
        "lon": -82.67891954559676,
        "alt_km": 35783.2932106317,
        "timestamp": "2025-12-21T03:56:50.501100+00:00",
        "meta_object_name": "COMS 1",
        "meta_object_id": "2010-032A",
        "meta_epoch": "2025-12-20T17:15:48.580128",
        "meta_mean_motion": 1.00272163,
        "meta_eccentricity": 6.97e-05,
        "meta_inclination": 4.3584,
        "meta_ra_of_asc_node": 77.9096,
        "meta_arg_of_pericenter": 203.045,
        "meta_mean_anomaly": 195.7243,
        "meta_ephemeris_type": 0,
        "meta_classification_type": "U",
        "meta_norad_cat_id": 36744,
        "meta_element_set_no": 999,
        "meta_rev_at_epoch": 4930,
        "meta_bstar": 0,
        "meta_mean_motion_dot": -3.24e-06,
        "meta_mean_motion_ddot": 0,
        "tle_line1": "1 36744U 10032A   25354.71931227 -.00000324  00000+0  00000+0 0  9999",
        "tle_line2": "2 36744   4.3584  77.9096 0000697 203.0450 195.7243  1.00272163 49303"
      },
      "geometry": {
        "type": "Point",
        "coordinates": [
          -82.67891954559676,
          -1.4782613964765337
        ]
      }
    },
    {
      "type": "Feature",
      "properties": {
        "norad_id": 37214,
        "name": "FENGYUN 3B",
        "group": "weather",
        "lat": 76.86705973089182,
        "lon": -7.526295014618596,
        "alt_km": 840.186589661409,
        "timestamp": "2025-12-21T03:56:50.501110+00:00",
        "meta_object_name": "FENGYUN 3B",
        "meta_object_id": "2010-059A",
        "meta_epoch": "2025-12-20T21:35:53.994336",
        "meta_mean_motion": 14.14791165,
        "meta_eccentricity": 0.0021668,
        "meta_inclination": 98.9899,
        "meta_ra_of_asc_node": 34.9342,
        "meta_arg_of_pericenter": 334.563,
        "meta_mean_anomaly": 198.975,
        "meta_ephemeris_type": 0,
        "meta_classification_type": "U",
        "meta_norad_cat_id": 37214,
        "meta_element_set_no": 999,
        "meta_rev_at_epoch": 78221,
        "meta_bstar": -9.2833e-05,
        "meta_mean_motion_dot": -2.25e-06,
        "meta_mean_motion_ddot": 0,
        "tle_line1": "1 37214U 10059A   25354.89993049 -.00000225  00000+0 -92833-4 0  9991",
        "tle_line2": "2 37214  98.9899  34.9342 0021668 334.5630 198.9750 14.14791165782211"
      },
      "geometry": {
        "type": "Point",
        "coordinates": [
          -7.526295014618596,
          76.86705973089182
        ]
      }
    },
    {
      "type": "Feature",
      "properties": {
        "norad_id": 37849,
        "name": "SUOMI NPP",
        "group": "weather",
        "lat": 62.514619034680905,
        "lon": -84.84748062841238,
        "alt_km": 819.5048206710753,
        "timestamp": "2025-12-21T03:56:50.501120+00:00",
        "meta_object_name": "SUOMI NPP",
        "meta_object_id": "2011-061A",
        "meta_epoch": "2025-12-17T23:31:21.474624",
        "meta_mean_motion": 14.19515682,
        "meta_eccentricity": 0.00023932,
        "meta_inclination": 98.7779,
        "meta_ra_of_asc_node": 289.2746,
        "meta_arg_of_pericenter": 111.1248,
        "meta_mean_anomaly": 249.0184,
        "meta_ephemeris_type": 0,
        "meta_classification_type": "U",
        "meta_norad_cat_id": 37849,
        "meta_element_set_no": 999,
        "meta_rev_at_epoch": 73273,
        "meta_bstar": 4.8615036e-05,
        "meta_mean_motion_dot": 5.8e-07,
        "meta_mean_motion_ddot": 0,
        "tle_line1": "1 37849U 11061A   25351.98010966  .00000058  00000+0  48615-4 0  9995",
        "tle_line2": "2 37849  98.7779 289.2746 0002393 111.1248 249.0184 14.19515682732735"
      },
      "geometry": {
        "type": "Point",
        "coordinates": [
          -84.84748062841238,
          62.514619034680905
        ]
      }
    },
    {
      "type": "Feature",
      "properties": {
        "norad_id": 38552,
        "name": "METEOSAT-10 (MSG-3)",
        "group": "weather",
        "lat": 4.260212286745981,
        "lon": 149.4929539989907,
        "alt_km": 35787.02476988885,
        "timestamp": "2025-12-21T03:56:50.501131+00:00",
        "meta_object_name": "METEOSAT-10 (MSG-3)",
        "meta_object_id": "2012-035B",
        "meta_epoch": "2025-12-19T08:07:49.924128",
        "meta_mean_motion": 1.00276524,
        "meta_eccentricity": 6.93e-05,
        "meta_inclination": 4.2433,
        "meta_ra_of_asc_node": 61.706,
        "meta_arg_of_pericenter": 270.066,
        "meta_mean_anomaly": 238.6463,
        "meta_ephemeris_type": 0,
        "meta_classification_type": "U",
        "meta_norad_cat_id": 38552,
        "meta_element_set_no": 999,
        "meta_rev_at_epoch": 4905,
        "meta_bstar": 0,
        "meta_mean_motion_dot": 1.7e-07,
        "meta_mean_motion_ddot": 0,
        "tle_line1": "1 38552U 12035B   25353.33877227  .00000017  00000+0  00000+0 0  9997",
        "tle_line2": "2 38552   4.2433  61.7060 0000693 270.0660 238.6463  1.00276524 49057"
      },
      "geometry": {
        "type": "Point",
        "coordinates": [
          149.4929539989907,
          4.260212286745981
        ]
      }
    },
    {
      "type": "Feature",
      "properties": {
        "norad_id": 38771,
        "name": "METOP-B",
        "group": "weather",
        "lat": -26.33603554227548,
        "lon": 49.316107724944054,
        "alt_km": 828.2482633168993,
        "timestamp": "2025-12-21T03:56:50.501141+00:00",
        "meta_object_name": "METOP-B",
        "meta_object_id": "2012-049A",
        "meta_epoch": "2025-12-20T17:56:09.923712",
        "meta_mean_motion": 14.21411138,
        "meta_eccentricity": 0.0003176,
        "meta_inclination": 98.6787,
        "meta_ra_of_asc_node": 44.57,
        "meta_arg_of_pericenter": 127.1484,
        "meta_mean_anomaly": 232.9984,
        "meta_ephemeris_type": 0,
        "meta_classification_type": "U",
        "meta_norad_cat_id": 38771,
        "meta_element_set_no": 999,
        "meta_rev_at_epoch": 68791,
        "meta_bstar": 6.1599e-05,
        "meta_mean_motion_dot": 9.1e-07,
        "meta_mean_motion_ddot": 0,
        "tle_line1": "1 38771U 12049A   25354.74733708  .00000091  00000+0  61599-4 0  9993",
        "tle_line2": "2 38771  98.6787  44.5700 0003176 127.1484 232.9984 14.21411138687911"
      },
      "geometry": {
        "type": "Point",
        "coordinates": [
          49.316107724944054,
          -26.33603554227548
        ]
      }
    },
    {
      "type": "Feature",
      "properties": {
        "norad_id": 39216,
        "name": "INSAT-3D",
        "group": "weather",
        "lat": -0.37612893585314516,
        "lon": -81.31387942344328,
        "alt_km": 35778.98281961753,
        "timestamp": "2025-12-21T03:56:50.501152+00:00",
        "meta_object_name": "INSAT-3D",
        "meta_object_id": "2013-038B",
        "meta_epoch": "2025-12-20T18:58:56.472096",
        "meta_mean_motion": 1.00276953,
        "meta_eccentricity": 0.0001806,
        "meta_inclination": 1.4644,
        "meta_ra_of_asc_node": 84.9078,
        "meta_arg_of_pericenter": 152.4363,
        "meta_mean_anomaly": 266.4889,
        "meta_ephemeris_type": 0,
        "meta_classification_type": "U",
        "meta_norad_cat_id": 39216,
        "meta_element_set_no": 999,
        "meta_rev_at_epoch": 4529,
        "meta_bstar": 0,
        "meta_mean_motion_dot": -3.16e-06,
        "meta_mean_motion_ddot": 0,
        "tle_line1": "1 39216U 13038B   25354.79093139 -.00000316  00000+0  00000+0 0  9995",
        "tle_line2": "2 39216   1.4644  84.9078 0001806 152.4363 266.4889  1.00276953 45293"
      },
      "geometry": {
        "type": "Point",
        "coordinates": [
          -81.31387942344328,
          -0.37612893585314516
        ]
      }
    },
    {
      "type": "Feature",
      "properties": {
        "norad_id": 39260,
        "name": "FENGYUN 3C",
        "group": "weather",
        "lat": 46.42224111031852,
        "lon": -36.58438766758815,
        "alt_km": 841.8255919167459,
        "timestamp": "2025-12-21T03:56:50.501162+00:00",
        "meta_object_name": "FENGYUN 3C",
        "meta_object_id": "2013-052A",
        "meta_epoch": "2025-12-20T20:56:24.686016",
        "meta_mean_motion": 14.15698555,
        "meta_eccentricity": 0.0014733,
        "meta_inclination": 98.4771,
        "meta_ra_of_asc_node": 332.1551,
        "meta_arg_of_pericenter": 172.3572,
        "meta_mean_anomaly": 187.783,
        "meta_ephemeris_type": 0,
        "meta_classification_type": "U",
        "meta_norad_cat_id": 39260,
        "meta_element_set_no": 999,
        "meta_rev_at_epoch": 63333,
        "meta_bstar": 4.0246e-05,
        "meta_mean_motion_dot": 3.8e-07,
        "meta_mean_motion_ddot": 0,
        "tle_line1": "1 39260U 13052A   25354.87250794  .00000038  00000+0  40246-4 0  9992",
        "tle_line2": "2 39260  98.4771 332.1551 0014733 172.3572 187.7830 14.15698555633334"
      },
      "geometry": {
        "type": "Point",
        "coordinates": [
          -36.58438766758815,
          46.42224111031852
        ]
      }
    }
  ]
}